     3.02           NAVIGATION DATA     M (Mixed)           RINEX VERSION / TYPE
BCEmerge            congo               20160415 073730 GMT PGM / RUN BY / DATE 
Merged GPS/GLO/GAL/BDS/QZS/SBAS/IRNSS navigation file       COMMENT 
based on CONGO and MGEX tracking data                       COMMENT 
DLR: O. Montenbruck;  TUM: P. Steigenberger                 COMMENT 
GAL    6.6750e+01 -3.9844e-01  1.2329e-02                   IONOSPHERIC CORR    
BDSA   1.6764e-08  3.7998e-07 -3.3379e-06  6.6757e-06       IONOSPHERIC CORR    
BDSB   1.1059e+05  1.3107e+05 -3.0147e+06  4.5875e+06       IONOSPHERIC CORR    
BDUT -5.5879354477e-09-0.000000000e+00     14 1886          TIME SYSTEM CORR    
GAUT  0.0000000000e+00 0.000000000e+00 172800 1886          TIME SYSTEM CORR    
GLGP -9.3132257462e-09 0.000000000e+00 259200 1886          TIME SYSTEM CORR    
GLUT -6.9849193096e-09 0.000000000e+00 259200 1886          TIME SYSTEM CORR    
GPGA  5.0931703299e-09-2.220446049e-15 259200 1886          TIME SYSTEM CORR    
GPUT  0.0000000000e+00-3.552713679e-15 405504 1886          TIME SYSTEM CORR    
QZUT  1.7695128918e-08-5.329070518e-15 499712 1886          TIME SYSTEM CORR    
    17                                                      LEAP SECONDS        
                                                            END OF HEADER   
E11 2016 03 01 00 00 00 6.643886445090e-05 1.097077984014e-11 0.000000000000e+00
     3.200000000000e+01-3.243750000000e+01 3.015839907552e-09 2.397505637802e+00
    -1.462176442146e-06 3.306962316856e-04 8.240342140198e-06 5.440621692657e+03
     1.728000000000e+05 9.313225746155e-09-1.259905024101e+00 5.960464477539e-08
     9.679475503522e-01 1.663125000000e+02-6.590241211713e-01-5.572732126661e-09
     2.775115594704e-10 2.580000000000e+02 1.886000000000e+03                   
     3.120000000000e+00 0.000000000000e+00-2.328306436539e-08 0.000000000000e+00
     1.735000000000e+05 
